CCSDS_OMM_VERS = 2.0
CREATION_DATE  = 
ORIGINATOR     = 

OBJECT_NAME    = STARLINK-35943
OBJECT_ID      = 2025-286C
CENTER_NAME    = EARTH
REF_FRAME      = TEME
TIME_SYSTEM    = UTC
MEAN_ELEMENT_THEORY = SGP/SGP4

EPOCH          = 2026-01-04T13:07:09.988896
MEAN_MOTION    = 15.49335270
ECCENTRICITY   = .0001261
INCLINATION    = 53.1600
RA_OF_ASC_NODE = 298.6961
ARG_OF_PERICENTER = 89.4829
MEAN_ANOMALY   = 270.6325

EPHEMERIS_TYPE = 0
CLASSIFICATION_TYPE = U
NORAD_CAT_ID   = 66927
ELEMENT_SET_NO = 999
REV_AT_EPOCH   = 556
BSTAR          = .14243E-2
MEAN_MOTION_DOT = .79648E-3
MEAN_MOTION_DDOT = 0

CCSDS_OMM_VERS = 2.0
CREATION_DATE  = 
ORIGINATOR     = 

OBJECT_NAME    = STARLINK-35944
OBJECT_ID      = 2025-286D
CENTER_NAME    = EARTH
REF_FRAME      = TEME
TIME_SYSTEM    = UTC
MEAN_ELEMENT_THEORY = SGP/SGP4

EPOCH          = 2026-01-04T20:00:01.999872
MEAN_MOTION    = 15.39581616
ECCENTRICITY   = .0001692
INCLINATION    = 53.1599
RA_OF_ASC_NODE = 297.4155
ARG_OF_PERICENTER = 111.2692
MEAN_ANOMALY   = 3.3350

EPHEMERIS_TYPE = 0
CLASSIFICATION_TYPE = U
NORAD_CAT_ID   = 66928
ELEMENT_SET_NO = 999
REV_AT_EPOCH   = 570
BSTAR          = .1173E-2
MEAN_MOTION_DOT = .4675E-3
MEAN_MOTION_DDOT = 0

CCSDS_OMM_VERS = 2.0
CREATION_DATE  = 
ORIGINATOR     = 

OBJECT_NAME    = STARLINK-36169
OBJECT_ID      = 2025-286E
CENTER_NAME    = EARTH
REF_FRAME      = TEME
TIME_SYSTEM    = UTC
MEAN_ELEMENT_THEORY = SGP/SGP4

EPOCH          = 2026-01-04T20:00:01.999872
MEAN_MOTION    = 15.39604317
ECCENTRICITY   = .0001391
INCLINATION    = 53.1592
RA_OF_ASC_NODE = 297.5186
ARG_OF_PERICENTER = 116.2412
MEAN_ANOMALY   = 306.7924

EPHEMERIS_TYPE = 0
CLASSIFICATION_TYPE = U
NORAD_CAT_ID   = 66929
ELEMENT_SET_NO = 999
REV_AT_EPOCH   = 570
BSTAR          = .11556E-2
MEAN_MOTION_DOT = .46081E-3
MEAN_MOTION_DDOT = 0

CCSDS_OMM_VERS = 2.0
CREATION_DATE  = 
ORIGINATOR     = 

OBJECT_NAME    = STARLINK-36206
OBJECT_ID      = 2025-286F
CENTER_NAME    = EARTH
REF_FRAME      = TEME
TIME_SYSTEM    = UTC
MEAN_ELEMENT_THEORY = SGP/SGP4

EPOCH          = 2026-01-04T13:06:10.473984
MEAN_MOTION    = 15.49314640
ECCENTRICITY   = .0001175
INCLINATION    = 53.1603
RA_OF_ASC_NODE = 298.6921
ARG_OF_PERICENTER = 70.9024
MEAN_ANOMALY   = 289.2113

EPHEMERIS_TYPE = 0
CLASSIFICATION_TYPE = U
NORAD_CAT_ID   = 66930
ELEMENT_SET_NO = 999
REV_AT_EPOCH   = 556
BSTAR          = .19992E-2
MEAN_MOTION_DOT = .112375E-2
MEAN_MOTION_DDOT = 0

CCSDS_OMM_VERS = 2.0
CREATION_DATE  = 
ORIGINATOR     = 

OBJECT_NAME    = STARLINK-36130
OBJECT_ID      = 2025-286G
CENTER_NAME    = EARTH
REF_FRAME      = TEME
TIME_SYSTEM    = UTC
MEAN_ELEMENT_THEORY = SGP/SGP4

EPOCH          = 2026-01-04T01:22:00.817824
MEAN_MOTION    = 15.39569661
ECCENTRICITY   = .00017092
INCLINATION    = 53.1614
RA_OF_ASC_NODE = 301.3321
ARG_OF_PERICENTER = 136.2708
MEAN_ANOMALY   = 223.8432

EPHEMERIS_TYPE = 0
CLASSIFICATION_TYPE = U
NORAD_CAT_ID   = 66931
ELEMENT_SET_NO = 999
REV_AT_EPOCH   = 548
BSTAR          = .14344223E-2
MEAN_MOTION_DOT = .57314E-3
MEAN_MOTION_DDOT = 0

CCSDS_OMM_VERS = 2.0
CREATION_DATE  = 
ORIGINATOR     = 

OBJECT_NAME    = STARLINK-36177
OBJECT_ID      = 2025-286H
CENTER_NAME    = EARTH
REF_FRAME      = TEME
TIME_SYSTEM    = UTC
MEAN_ELEMENT_THEORY = SGP/SGP4

EPOCH          = 2026-01-04T20:00:01.999872
MEAN_MOTION    = 15.39603169
ECCENTRICITY   = .0001368
INCLINATION    = 53.1597
RA_OF_ASC_NODE = 297.4653
ARG_OF_PERICENTER = 100.8179
MEAN_ANOMALY   = 347.9620

EPHEMERIS_TYPE = 0
CLASSIFICATION_TYPE = U
NORAD_CAT_ID   = 66932
ELEMENT_SET_NO = 999
REV_AT_EPOCH   = 570
BSTAR          = .11741E-2
MEAN_MOTION_DOT = .46825E-3
MEAN_MOTION_DDOT = 0

CCSDS_OMM_VERS = 2.0
CREATION_DATE  = 
ORIGINATOR     = 

OBJECT_NAME    = STARLINK-36157
OBJECT_ID      = 2025-286J
CENTER_NAME    = EARTH
REF_FRAME      = TEME
TIME_SYSTEM    = UTC
MEAN_ELEMENT_THEORY = SGP/SGP4

EPOCH          = 2026-01-03T06:06:52.191072
MEAN_MOTION    = 15.49386556
ECCENTRICITY   = .0000147
INCLINATION    = 53.1603
RA_OF_ASC_NODE = 304.8537
ARG_OF_PERICENTER = 328.0965
MEAN_ANOMALY   = 32.0035

EPHEMERIS_TYPE = 0
CLASSIFICATION_TYPE = U
NORAD_CAT_ID   = 66933
ELEMENT_SET_NO = 999
REV_AT_EPOCH   = 536
BSTAR          = .30092E-2
MEAN_MOTION_DOT = .171097E-2
MEAN_MOTION_DDOT = 0

CCSDS_OMM_VERS = 2.0
CREATION_DATE  = 
ORIGINATOR     = 

OBJECT_NAME    = STARLINK-36153
OBJECT_ID      = 2025-286K
CENTER_NAME    = EARTH
REF_FRAME      = TEME
TIME_SYSTEM    = UTC
MEAN_ELEMENT_THEORY = SGP/SGP4

EPOCH          = 2026-01-04T20:00:01.999872
MEAN_MOTION    = 15.39600442
ECCENTRICITY   = .0001342
INCLINATION    = 53.1590
RA_OF_ASC_NODE = 297.5691
ARG_OF_PERICENTER = 93.8116
MEAN_ANOMALY   = 303.4682

EPHEMERIS_TYPE = 0
CLASSIFICATION_TYPE = U
NORAD_CAT_ID   = 66934
ELEMENT_SET_NO = 999
REV_AT_EPOCH   = 570
BSTAR          = .12198E-2
MEAN_MOTION_DOT = .48672E-3
MEAN_MOTION_DDOT = 0

CCSDS_OMM_VERS = 2.0
CREATION_DATE  = 
ORIGINATOR     = 

OBJECT_NAME    = STARLINK-36127
OBJECT_ID      = 2025-286L
CENTER_NAME    = EARTH
REF_FRAME      = TEME
TIME_SYSTEM    = UTC
MEAN_ELEMENT_THEORY = SGP/SGP4

EPOCH          = 2026-01-04T04:35:39.774048
MEAN_MOTION    = 15.39580946
ECCENTRICITY   = .0001319
INCLINATION    = 53.1605
RA_OF_ASC_NODE = 300.7471
ARG_OF_PERICENTER = 65.3283
MEAN_ANOMALY   = 294.7859

EPHEMERIS_TYPE = 0
CLASSIFICATION_TYPE = U
NORAD_CAT_ID   = 66935
ELEMENT_SET_NO = 999
REV_AT_EPOCH   = 550
BSTAR          = .1541E-2
MEAN_MOTION_DOT = .6166E-3
MEAN_MOTION_DDOT = 0

CCSDS_OMM_VERS = 2.0
CREATION_DATE  = 
ORIGINATOR     = 

OBJECT_NAME    = STARLINK-36160
OBJECT_ID      = 2025-286M
CENTER_NAME    = EARTH
REF_FRAME      = TEME
TIME_SYSTEM    = UTC
MEAN_ELEMENT_THEORY = SGP/SGP4

EPOCH          = 2026-01-04T20:00:01.999872
MEAN_MOTION    = 15.39557953
ECCENTRICITY   = .0001891
INCLINATION    = 53.1601
RA_OF_ASC_NODE = 297.3630
ARG_OF_PERICENTER = 116.4592
MEAN_ANOMALY   = 23.9055

EPHEMERIS_TYPE = 0
CLASSIFICATION_TYPE = U
NORAD_CAT_ID   = 66936
ELEMENT_SET_NO = 999
REV_AT_EPOCH   = 570
BSTAR          = .14302E-2
MEAN_MOTION_DOT = .5712E-3
MEAN_MOTION_DDOT = 0

CCSDS_OMM_VERS = 2.0
CREATION_DATE  = 
ORIGINATOR     = 

OBJECT_NAME    = STARLINK-36165
OBJECT_ID      = 2025-286N
CENTER_NAME    = EARTH
REF_FRAME      = TEME
TIME_SYSTEM    = UTC
MEAN_ELEMENT_THEORY = SGP/SGP4

EPOCH          = 2026-01-04T13:02:42.952416
MEAN_MOTION    = 15.49347711
ECCENTRICITY   = .0001271
INCLINATION    = 53.1597
RA_OF_ASC_NODE = 298.6751
ARG_OF_PERICENTER = 72.4873
MEAN_ANOMALY   = 287.6275

EPHEMERIS_TYPE = 0
CLASSIFICATION_TYPE = U
NORAD_CAT_ID   = 66937
ELEMENT_SET_NO = 999
REV_AT_EPOCH   = 556
BSTAR          = .16996E-2
MEAN_MOTION_DOT = .95369E-3
MEAN_MOTION_DDOT = 0

CCSDS_OMM_VERS = 2.0
CREATION_DATE  = 
ORIGINATOR     = 

OBJECT_NAME    = STARLINK-36155
OBJECT_ID      = 2025-286P
CENTER_NAME    = EARTH
REF_FRAME      = TEME
TIME_SYSTEM    = UTC
MEAN_ELEMENT_THEORY = SGP/SGP4

EPOCH          = 2026-01-03T08:00:03.000384
MEAN_MOTION    = 15.49379009
ECCENTRICITY   = .00010904
INCLINATION    = 53.1586
RA_OF_ASC_NODE = 304.4574
ARG_OF_PERICENTER = 88.1775
MEAN_ANOMALY   = 0.2121

EPHEMERIS_TYPE = 0
CLASSIFICATION_TYPE = U
NORAD_CAT_ID   = 66938
ELEMENT_SET_NO = 999
REV_AT_EPOCH   = 546
BSTAR          = -.28275309E-2
MEAN_MOTION_DOT = -.155008E-2
MEAN_MOTION_DDOT = 0

