STARLINK-35943          
1 66927U 25286C   26004.54664339  .00079648  00000+0  14243-2 0  9994
2 66927  53.1600 298.6961 0001261  89.4829 270.6325 15.49335270  5568
STARLINK-35944          
1 66928U 25286D   26004.83335648  .00046750  00000+0  11730-2 0  9991
2 66928  53.1599 297.4155 0001692 111.2692   3.3350 15.39581616  5709
STARLINK-36169          
1 66929U 25286E   26004.83335648  .00046081  00000+0  11556-2 0  9995
2 66929  53.1592 297.5186 0001391 116.2412 306.7924 15.39604317  5700
STARLINK-36206          
1 66930U 25286F   26004.54595456  .00112375  00000+0  19992-2 0  9992
2 66930  53.1603 298.6921 0001175  70.9024 289.2113 15.49314640  5566
STARLINK-36130          
1 66931U 25286G   26004.05695391  .00057314  00000+0  14344-2 0  9995
2 66931  53.1614 301.3321 0001709 136.2708 223.8432 15.39569661  5486
STARLINK-36177          
1 66932U 25286H   26004.83335648  .00046825  00000+0  11741-2 0  9991
2 66932  53.1597 297.4653 0001368 100.8179 347.9620 15.39603169  5704
STARLINK-36157          
1 66933U 25286J   26003.25477073  .00171097  00000+0  30092-2 0  9996
2 66933  53.1603 304.8537 0000147 328.0965  32.0035 15.49386556  5361
STARLINK-36153          
1 66934U 25286K   26004.83335648  .00048672  00000+0  12198-2 0  9992
2 66934  53.1590 297.5691 0001342  93.8116 303.4682 15.39600442  5702
STARLINK-36127          
1 66935U 25286L   26004.19143257  .00061660  00000+0  15410-2 0  9997
2 66935  53.1605 300.7471 0001319  65.3283 294.7859 15.39580946  5508
STARLINK-36160          
1 66936U 25286M   26004.83335648  .00057120  00000+0  14302-2 0  9991
2 66936  53.1601 297.3630 0001891 116.4592  23.9055 15.39557953  5703
STARLINK-36165          
1 66937U 25286N   26004.54355269  .00095369  00000+0  16996-2 0  9999
2 66937  53.1597 298.6751 0001271  72.4873 287.6275 15.49347711  5568
STARLINK-36155          
1 66938U 25286P   26003.33336806 -.00155008  00000+0 -28275-2 0  9994
2 66938  53.1586 304.4574 0001090  88.1775   0.2121 15.49379009  5463
